GLOBALSTAR M057         
1 25943U 99058A   25204.51049237 -.00000025  00000+0  61379-3 0  9994
2 25943  51.9965 245.1213 0002759  95.1411 264.9754 12.24827238171388
GLOBALSTAR M059         
1 25944U 99058B   25204.51738154 -.00000098  00000+0 -14321-3 0  9994
2 25944  52.0018 108.8883 0001166  30.1188 141.4103 11.99979936578404
GLOBALSTAR M056         
1 25945U 99058C   25204.45493306 -.00000142  00000+0 -63629-3 0  9990
2 25945  51.9963 110.0860 0000512 291.0593 239.9329 12.04780522166992
GLOBALSTAR M031         
1 25946U 99058D   25204.48938447  .00000053  00000+0  14545-2 0  9995
2 25946  51.9988   0.1489 0000657 222.8142 172.4129 12.16039686168967
GLOBALSTAR M039         
1 25961U 99062A   25204.58779522 -.00000122  00000+0 -10240-3 0  9993
2 25961  51.9836 157.8468 0002958  63.6022 296.5148 12.62329813184813
GLOBALSTAR M034         
1 25962U 99062B   25204.46385727  .00000013  00000+0  14927-2 0  9993
2 25962  51.9870 277.0917 0014470 111.0803 262.2752 11.79447084142670
GLOBALSTAR M029         
1 25963U 99062C   25204.59091229 -.00000081  00000+0  65389-4 0  9995
2 25963  51.9828 356.6941 0002639 171.9512 267.0801 11.99898476173490
GLOBALSTAR M061         
1 25964U 99062D   25204.50335279 -.00000087  00000+0 -10890-3 0  9996
2 25964  51.9793 101.5036 0006677  33.7027 138.8112 11.76776146125453
